ONEWEB-0319             
1 49105U 21075AG  24153.48032383  .00000053  00000+0  10277-3 0  9997
2 49105  87.9162 154.3199 0001462  83.4210 276.7088 13.17650567135409
ONEWEB-0323             
1 49106U 21075AH  24153.59464111 -.00000248  00000+0 -72414-3 0  9997
2 49106  87.8927 139.1100 0001843  84.7604 275.3735 13.12567681136757
ONEWEB-0329             
1 49107U 21075AJ  24153.48824184  .00000079  00000+0  17045-3 0  9995
2 49107  87.9161 154.3220 0001904  84.1135 276.0213 13.17647453135380
ONEWEB-0330             
1 49108U 21075AK  24153.48982428  .00000070  00000+0  14763-3 0  9997
2 49108  87.9162 154.3220 0001980  80.4308 279.7047 13.17647525135427
ONEWEB-0292             
1 49186U 21083A   24153.38564548  .00000065  00000+0  14281-3 0  9999
2 49186  87.8921 108.7075 0001968  84.1270 276.0083 13.13469513133020
ONEWEB-0303             
1 49187U 21083B   24153.43892085  .00000056  00000+0  11001-3 0  9993
2 49187  87.9134 123.9096 0001807  86.3965 273.7374 13.18687443131694
ONEWEB-0306             
1 49188U 21083C   24153.42945507  .00000288  00000+0  69757-3 0  9999
2 49188  87.9133 123.8989 0002247  84.5815 275.5573 13.18684232131736
ONEWEB-0307             
1 49189U 21083D   24153.60862352 -.00000167  00000+0 -49122-3 0  9998
2 49189  87.8923 108.6628 0002349  75.5082 284.6308 13.13469119133057
